[{"OBJECT_NAME":"STARLINK-1297","OBJECT_ID":"2020-019AM","EPOCH":"2026-03-09T21:10:27.474816","MEAN_MOTION":15.541873,"ECCENTRICITY":0.00048298,"INCLINATION":53.0474,"RA_OF_ASC_NODE":129.7713,"ARG_OF_PERICENTER":18.8538,"MEAN_ANOMALY":341.265,"EPHEMERIS_TYPE":0,"CLASSIFICATION_TYPE":"U","NORAD_CAT_ID":45395,"ELEMENT_SET_NO":999,"REV_AT_EPOCH":32944,"BSTAR":0.0015120632,"MEAN_MOTION_DOT":0.00101021,"MEAN_MOTION_DDOT":0},{"OBJECT_NAME":"SL-12 DEB","OBJECT_ID":"1992-047J","EPOCH":"2026-03-09T22:15:01.284480","MEAN_MOTION":8.93580784,"ECCENTRICITY":0.32480985,"INCLINATION":64.2196,"RA_OF_ASC_NODE":306.19,"ARG_OF_PERICENTER":146.4398,"MEAN_ANOMALY":239.2673,"EPHEMERIS_TYPE":0,"CLASSIFICATION_TYPE":"U","NORAD_CAT_ID":23616,"ELEMENT_SET_NO":999,"REV_AT_EPOCH":13402,"BSTAR":0.0017467614,"MEAN_MOTION_DOT":0.00066999,"MEAN_MOTION_DDOT":0}]
